#dP2019  6  1  0  0  0.00000000      96 __u+U IGS08 FIT  IAC
## 2055 518400.00000000   900.00000000 58635 0.0000000000000
+   95   C02C03C04C05C06C07C08C09C10C11C12C13C14C16E01E02E03
+        E04E05E07E08E09E11E12E13E14E15E18E19E21E24E25E26E27
+        E30E31E33E36G01G02G03G05G06G07G08G09G10G11G12G13G14
+        G15G16G17G18G19G20G21G22G23G24G25G26G27G28G29G30G31
+        G32J01J02J03R01R02R03R04R05R07R08R09R10R11R13R14R15
+        R16R17R18R19R20R21R22R23R24R26  0  0  0  0  0  0  0
++        13 13 13 13  8  8  8  8  8  7  7  9  7  8  4  4  5
++         5  4  4  5  4  4  5  4  4  4  4  4  4  4  4  4  5
++         4  4  4  4  3  3  3  3  3  3  3  3  3  3  3  3  3
++         3  3  3  5  3  3  3  3  3  3  3  3  3  3  3  3  3
++         3  8  8  8  5  5  5  5  5  5  5  6  5  5  6  5  5
++         6  5  5  6  6  5  5  5  6  8  0  0  0  0  0  0  0
%c M  cc GPS ccc cccc cccc cccc cccc ccccc ccccc ccccc ccccc
%c cc cc ccc ccc cccc cccc cccc cccc ccccc ccccc ccccc ccccc
%f  1.2500000  1.025000000  0.00000000000  0.000000000000000
%f  0.0000000  0.000000000  0.00000000000  0.000000000000000
%i    0    0    0    0      0      0      0      0         0
%i    0    0    0    0      0      0      0      0         0
/* INFORMATION & ANALYSIS CENTER (IAC)            FINAL DATA
/* S/V CLOCKS ARE ALIGNED TO GPS & GLONASS TIME RESPECTIVELY
/* USING THE BROADCAST EPHEMERIS                            
/* PCV:IGS14_2045 OL/AL:FES2004  NONE     YN ORB:CoN CLK:CoN
*  2019 06 01 11 15  0.00000000
PC02   4436.664672  41930.420514   1160.406451    123.873893
PC03 -14843.896014  39482.247262    480.215582    442.904331
PC04 -39609.021865  14440.006669     48.461052   -208.562324
PC05  21877.947059  36060.067382    829.638667   -198.362102
PC06 -23225.034170  35054.924153  -4811.660907    932.284103
PC07  -9008.743883  30502.402052 -27322.995241    -49.029534
PC08 -17515.587524  18357.487178  33693.394982    162.362041
PC09 -10670.643627  35174.563611 -20724.549166    808.138032
PC10   4581.393785  38343.781895 -16321.865011   -804.371602
PC11 -20073.699869  -3497.246013 -18991.963942    300.525603
PC12   7127.245592 -18578.634861 -19538.441534    722.323107
PC13   -139.460872  23352.687077  35165.191599   -749.289264
PC14  -9920.842144 -21653.966714  14576.948147    585.520617
PC16 -20064.565882  36156.827533  -8647.812117   -872.013860
PE01  11431.394545 -11854.905876  24592.355203   -616.940074
PE02 -11397.133487  11902.365744 -24593.109640     62.849242
PE03 -17471.616681  21729.719523   9925.220754   -172.499950
PE04   5862.709532 -27764.631466   8435.801815   -293.787139
PE05 -18916.091105   2915.871192  22588.892708   -478.913894
PE07   9288.037795  17502.611751 -21972.373512   -198.799809
PE08  -5626.038059  27768.825387  -8535.242301   6346.838084
PE09  -9331.973167 -17370.238264  22094.240086   6422.090457
PE11 -18564.767448 -11328.513455 -20096.612898   5685.372446
PE12   3577.380371 -16614.828474 -24230.616611   6367.991861
PE13  18443.754015  11252.608816  20231.491351    387.889479
PE14  13252.028732 -23922.972578 -10487.418738   -588.760015
PE15  -3131.488855  16553.297418  24344.480408    908.405278
PE18 -22169.551666  16917.247590  -2565.822035   -685.723500
PE19  18015.617770 -20398.074731 -11626.797420     -6.053727
PE21  21287.043438   7975.918775  18947.583633   -536.855993
PE24 -18540.489151 -22934.207277  -2482.712131   6051.283075
PE25 -21307.087194  -8045.803911 -18909.717758   1786.673945
PE26  29296.716594   -408.061858   4200.938360   4503.471833
PE27  18508.448401  22998.680518   2135.460393    458.158292
PE30   4919.793870  24624.435892 -15686.289009   4825.432051
PE31  -4878.351566 -24497.165285  15893.825638   -465.250349
PE33  22925.301888 -12172.765492 -14212.452292   -470.045964
PE36 -29292.953243    667.178151  -4237.906413    705.113559
PG01 -18846.020198 -13837.064573 -13091.142420    -30.199344
PG02  -3418.792407  15253.356083  22078.627553   -226.994788
PG03 -12822.977336 -21469.795448   9042.354949    186.841341
PG05    841.520169  24664.689595   9419.022882      0.722054
PG06 -17623.113293   8347.867683  18091.008022    190.015397
PG07 -25894.852542  -7003.247059    404.399522    -35.722855
PG08  -1730.157820 -17794.893814 -19542.068641   -145.749762
PG09 -19038.869006   1205.841651  18445.644858    400.302166
PG10  13468.668945  -7422.176874 -21573.386004     29.489105
PG11 -14555.233407 -12108.048576 -19071.266205   -594.293627
PG12  10302.882789  23316.075294   7549.563685    237.197687
PG13  -8193.039149  20221.809429 -15222.211459    -61.079389
PG14  18491.332203 -18806.167941   2433.209762    -78.006037
PG15   5020.868980  17355.271307 -19614.207978   -309.669347
PG16   1025.336147 -24731.834800   8818.801100    -44.588684
PG17 -21243.906466  14546.786688  -5926.131629     64.352746
PG18 -10265.021528 -15839.408343 -19232.268911     58.275811
PG19 -19924.830950  17598.311029    624.597400   -311.977532
PG20  17334.506921   2362.305925 -20124.570147    525.107182
PG21  26014.864821   2092.474021  -3644.494021   -181.590701
PG22 -10546.977526 -24374.836424   1811.109951   -710.239032
PG23 -11491.986137 -10780.334948  21714.732276   -183.713341
PG24  16375.202721  14566.036027 -15385.781529    -66.874605
PG25  15793.792656  12992.846297  16870.215077   -761.793290
PG26   6879.725689 -18869.816686  17268.272167    216.004865
PG27   9257.288119 -21607.697552 -12169.650459   -146.466214
PG28 -13413.680730   6167.912110 -21484.617538    767.720025
PG29  16241.527210   3671.727924  20660.311628    187.367415
PG30 -24617.549920    592.796849 -10175.112070   -115.525079
PG31  16826.555218  -8936.139443  18682.505983     34.149027
PG32  20258.994694 -16282.793629  -5083.932086    -62.371967
PJ01 -27238.516472  26281.428211  23619.393899   -295.300691
PJ02 -22096.740363  17844.579520 -26714.596168     -0.079747
PJ03 -28177.966012  31484.641070   4142.297731      0.510308
PR01 -11475.917292   1389.256492  22745.129926     44.658248
PR02  -9871.641685  20643.260069  11371.700873    371.387279
PR03  -2208.847726  24705.000199  -6003.501940     -3.962417
PR04   6963.170285  13909.393006 -20198.381023    308.441158
PR05  11565.783877  -3953.009745 -22369.333786     29.213976
PR07   1880.107983 -24544.382929   6657.936194    -21.037145
PR08  -6667.957600 -14557.397344  19912.513567     17.479205
PR09   5412.108458 -10057.535522  22824.351401     72.754167
PR10  -8226.239391 -17798.280356  16344.257647     51.115876
PR11 -19228.452829 -16788.108274   -682.541916    -67.999166
PR13  -6857.843823   8469.555817 -23082.066518    -24.340206
PR14   8311.113538  17844.674062 -16203.096514     39.521204
PR15  18922.655911  17103.717913   -153.563015    102.290077
PR16  18879.632971   6101.680620  16075.193926      8.980730
PR17  -4176.237415  12004.523244  22115.314021    232.287711
PR18  13318.096230   5694.175957  20989.646151     -4.814089
PR19  23829.343799  -3133.217413   8536.780914    -33.837482
PR20  20322.475992 -11043.584433 -10695.479621   -379.899467
PR21   3562.956376 -11808.893667 -22333.624310    -51.392406
PR22 -15801.820422  -4243.311751 -19616.855351    -21.916191
PR23 -24512.530427   6266.112590  -3287.063879    231.600976
PR24 -19004.669663  11826.220237  12223.848076   -181.076481
PR26  21671.242229 -10766.305957  -8093.273070     -8.930757
EOF
